#dP2022  9  9  6  0  0.00000000      96 __u+U ITR00 EXT  IAC
## 2226 453600.00000000   900.00000000 59831 0.2500000000000
+  115   C06C07C08C09C10C11C12C13C14C16C19C20C21C22C23C24C25
+        C26C27C28C29C30C32C33C34C35C36C37C38C39C40C41C42C43
+        C44C45C46E01E02E03E04E05E07E08E09E10E11E12E13E14E15
+        E18E19E21E24E25E26E27E30E31E33E34E36G01G02G03G04G05
+        G06G07G08G09G10G11G12G13G14G15G16G17G18G19G20G21G22
+        G24G25G27G28G29G30G31G32J02J03R01R02R03R04R05R07R08
+        R09R11R12R13R14R15R17R18R19R20R21R24R25  0  0  0  0
++         9 11 10 10 10 13 10 10  9  9  9  8  7  8  9  8  8
++         9 10  9  8 11  8  9 10  8  8  9 10  9 10  8  8 10
++         8  8  8  8  7  9  8  9  8  8  8  9  9  8  8  8  7
++         8  7  9  7  8  8  8  8  8  8  8  8  7  8  8  9  8
++         9  9  8  8  8  8  8  8  8  8  9  7  8  8  8  8  9
++         8  7  8  7  8  8  9  8 10 10  8  9  9  8  9  8  9
++        10  7  9  9  9  9  8  8  9 10  8  7  8  0  0  0  0
%c M  cc GPS ccc cccc cccc cccc cccc ccccc ccccc ccccc ccccc
%c cc cc ccc ccc cccc cccc cccc cccc ccccc ccccc ccccc ccccc
%f  0.0000000  0.000000000  0.00000000000  0.000000000000000
%f  0.0000000  0.000000000  0.00000000000  0.000000000000000
%i    0    0    0    0      0      0      0      0         0
%i    0    0    0    0      0      0      0      0         0
/* IAC                                ULTRA-RAPID PREDICTION
/* S/V CLOCKS ARE ALIGNED TO GNSS TIME                      
/* G:C1WC2W R:C1PC2P E:C1XC5X C:C2IC6I J:C1CC2S             
/* PCV:IGS14_2218 OL/AL:FES2004  NONE     YN ORB:CoN CLK:CoN
*  2022 09 10  4  0  0.00000000
PC06 -17630.513785  36918.321521 -10675.274015    804.257462
PC07  -3367.430839  34273.151416 -24168.856230   -120.481887
PC08 -11213.733296  19476.390679  35629.794171    467.041196
PC09 -11879.170182  35966.104457 -18684.690176   -868.344387
PC10   3311.191144  36956.603996 -19246.550678     98.591570
PC11   1675.865591  20690.804258  18694.722963   -417.988394
PC12 -12132.339009  24857.311202   3628.338488   -523.499592
PC13  -2639.398357  22159.859089  35888.388964     76.377017
PC14  12248.361569  24881.790000   2839.125566    642.730697
PC16 -20386.939470  36384.206684  -6900.466178    138.708487
PC19 -17376.116654 -20833.022657   6598.839531   -620.742765
PC20  -6565.066855 -25148.842816 -10190.020138    526.284835
PC21  -9034.121757  14547.688352  22037.048408   -364.092931
PC22 -18630.968867  -4339.241518  20317.648248   -554.887741
PC23  27903.620517    315.968608   -388.040013    519.824800
PC24  -1400.718482  16286.876539 -22617.790611    -70.869837
PC25  20186.971641  10932.955460 -15883.588707   -680.436258
PC26 -19123.885039  12135.048012 -16287.750699     -5.381794
PC27  16861.171298 -21661.085323   4986.780780     18.557514
PC28  19289.988240  -6700.901672  19027.108074     11.216582
PC29 -10621.881076 -12953.629173 -22326.332035     11.483318
PC30   4413.309458 -25003.651888 -11570.306080    502.820368
PC32   8973.952725 -14566.349381 -22040.596718   -810.894118
PC33  17451.898799  20780.590218  -6480.351132   -624.523981
PC34  -3576.651115  24715.632027  12457.487922   -316.961783
PC35 -18877.029005   5935.592644 -19696.260352    451.931050
PC36 -19410.197038 -11698.307899  16309.263374   -134.758155
PC37  20474.580805 -11086.196199  15419.852108   -147.804779
PC38 -19632.418009  19803.460574  31571.580063     23.182212
PC39 -21543.103843  36343.568523  -1285.469355     -0.416301
PC40  -6870.610566  30266.290512 -28435.640324     -3.879404
PC41  18793.193574   4817.146950 -20015.012752    -64.618837
PC42   5628.743351  24924.179965  11232.377944   -267.977129
PC43  10149.897221  13737.904362  22061.566081     13.401169
PC44 -16216.356641  22127.341972  -5198.484872     45.259182
PC45 -27893.772331    -98.300593     73.293680    857.071963
PC46   -536.488329 -16187.050204  22732.425782   -533.150253
PE01  22056.388638  -2535.367618  19587.129526   -525.126756
PE02 -21931.565160   2685.709663 -19683.952127    323.763301
PE03 -15321.550422  13008.130555  21720.552881   -598.320728
PE04   5785.678652 -27872.075027  -8114.892364  -1112.192802
PE05 -16053.437635  -9826.362074  22844.703649   -145.447623
PE07   7443.017608  26581.073243 -10674.820473   -704.106383
PE08  -5595.739710  27919.793658   8059.409173   -596.187582
PE09  -7389.628882 -26627.819641  10626.309437   -653.212431
PE10   5008.161209 -19284.007854 -21907.520467   -475.785150
PE11  -6291.541089 -14933.659816 -24784.362888   2285.417041
PE12  14708.454530 -20311.099794 -15727.428527   -161.037020
PE13   5445.292362  15283.311327  24755.550861    430.546406
PE14  15069.464235 -16013.596534  14932.621548  -1724.567845
PE15 -14876.317424  20291.007576  15588.580526    721.386203
PE18 -19745.162135   4547.033103 -22450.033906   -994.041126
PE19  15902.494578 -10176.166037 -22795.137267  -4572.467042
PE21  26719.283948  11789.883197   4832.810570   -756.845816
PE24 -15424.464883 -20662.178513  14514.439114   -828.492568
PE25 -26671.372017 -12006.007334  -4524.182309   -587.242874
PE26  22971.707922    794.384904  18656.714502  -1595.394002
PE27  16443.592130  20447.592973 -13696.244332   -388.504045
PE30  -4401.545683  16609.765633 -24103.867458   -824.449333
PE31   3430.055959 -16992.942757  24006.710229   -503.247418
PE33  26306.080364 -13298.803646   2721.022712   -453.592785
PE34 -26238.686186  13440.625675  -2556.889726     -3.747671
PE36 -22381.492756  -1366.648010 -19323.950188   -429.248973
PG01   3207.260450 -16407.365187 -20859.323842    286.582320
PG02 -12103.951981  18736.087521  15203.375262   -646.548136
PG03  -5358.828870 -18874.974126 -18075.565467   -348.411269
PG04    878.594620 -26243.676618   3640.785089   -120.952208
PG05  -7094.947862  13381.763074  21637.598262    -96.102646
PG06 -24868.337916   5872.517310  -7328.383414    455.726435
PG07 -13512.888894 -10300.408906  20938.565081    308.743045
PG08   5935.696361 -25001.910754   5883.331449    -83.988124
PG09  -8037.908109 -21278.784064  13607.620992   -297.972668
PG10  23401.858812  10568.270447  -7241.331732     -2.619704
PG11 -23227.046064  12180.205140   4073.059582    -15.461370
PG12   2898.255104  19024.876017 -18616.783512   -275.927740
PG13 -13013.657755  19659.089356  11881.370289    384.591513
PG14 -22858.026373 -12320.371230  -5844.923664   -104.588039
PG15  -2947.507357  25624.626646   5193.424545    -30.256721
PG16  13962.619456  -7259.634879  21187.017519   -523.656035
PG17 -13183.179741  -7988.923786 -21184.577495    657.586648
PG18  13906.080851   9314.155991  20648.277268     53.621363
PG19 -15485.547585   2950.804325 -21578.926847    208.675378
PG20 -18817.039852   5176.607778  17918.280382    487.671946
PG21  11744.592560 -18089.562111 -14379.538868    159.621135
PG22  15441.794719  -6461.818834 -20161.619632    325.133803
PG24  -6216.032787  18679.871722 -17953.072474    140.668741
PG25  14926.537341  19590.392872 -10578.316418    370.372865
PG27  12427.125448 -16958.359995  15770.386051    213.034750
PG28 -21502.963079  -6120.898891 -13644.535145    339.009616
PG29   5321.684024  22198.246284  13461.926082   -550.288784
PG30 -22066.680023  -2277.850858  14881.489347   -536.844838
PG31  25395.553375  -6301.092604  -5957.489540   -192.810812
PG32  14749.549790   4458.793116 -21500.138762   -228.772772
PJ02 -26235.463755  15628.844533 -24494.290602     -4.725550
PJ03 -27235.273659  31974.655798    943.437114     -1.443629
PR01 -13432.238744 -16971.161700  13503.165839     14.509718
PR02 -10885.034967   1665.443644  23042.844784    -22.628763
PR03  -2447.479349  18219.942088  17751.972253     63.421260
PR04   7133.178451  24345.230046   2761.220982    157.026681
PR05  12777.854192  17263.804245 -13777.005877     99.367099
PR07   2019.521133 -18681.007305 -17191.318084     40.728108
PR08  -7334.801050 -24280.354106  -2501.207042    -67.114926
PR09  23683.786004   -893.387611   9350.235988     75.889666
PR11  -7162.306155 -11579.372189  21588.330307     27.905960
PR12 -22652.427445  -8132.841387   8459.176160     21.070646
PR13 -24230.174706   -141.364683  -7981.891200    -26.636545
PR14 -10963.402157   8613.182833 -21346.879515     24.292012
PR15   8049.451992  11759.250742 -21129.028463     93.784744
PR17 -15258.451595  20118.507752   3438.441100    559.831736
PR18  -4521.878161  17463.720729  18066.138659     41.685790
PR19   7648.909022   6950.975904  23317.833707   -203.150888
PR20  18327.254214 -10410.108300  14349.594232    -78.081373
PR21  14667.426310 -20281.118185  -5021.305016   -332.501026
PR24 -18359.233735  11251.748187 -13640.737879    113.716801
PR25   4388.883342 -17155.754065 -18332.350159     13.001558
EOF
